[
  {
    "OBJECT_NAME": "ISS (NAUKA)",
    "OBJECT_ID": "2021-066A",
    "EPOCH": "2025-06-28T15:16:24.946176",
    "MEAN_MOTION": 15.50311632,
    "ECCENTRICITY": 0.0002273,
    "INCLINATION": 51.6357,
    "RA_OF_ASC_NODE": 250.3344,
    "ARG_OF_PERICENTER": 307.238,
    "MEAN_ANOMALY": 205.8554,
    "EPHEMERIS_TYPE": 0,
    "CLASSIFICATION_TYPE": "U",
    "NORAD_CAT_ID": 49044,
    "ELEMENT_SET_NO": 999,
    "REV_AT_EPOCH": 22239,
    "BSTAR": 0.0010165,
    "MEAN_MOTION_DOT": 0.00058636,
    "MEAN_MOTION_DDOT": 0
  },
  {
    "OBJECT_NAME": "FREGAT DEB",
    "OBJECT_ID": "2011-037PF",
    "EPOCH": "2025-06-28T10:10:50.869632",
    "MEAN_MOTION": 12.31027187,
    "ECCENTRICITY": 0.0923372,
    "INCLINATION": 51.64,
    "RA_OF_ASC_NODE": 334.0472,
    "ARG_OF_PERICENTER": 215.2362,
    "MEAN_ANOMALY": 138.3949,
    "EPHEMERIS_TYPE": 0,
    "CLASSIFICATION_TYPE": "U",
    "NORAD_CAT_ID": 49271,
    "ELEMENT_SET_NO": 999,
    "REV_AT_EPOCH": 18129,
    "BSTAR": 0.037503,
    "MEAN_MOTION_DOT": 0.00019014,
    "MEAN_MOTION_DDOT": 0
  },
  {
    "OBJECT_NAME": "CSS (WENTIAN)",
    "OBJECT_ID": "2022-085A",
    "EPOCH": "2025-06-28T14:15:54.432000",
    "MEAN_MOTION": 15.59436651,
    "ECCENTRICITY": 0.0005369,
    "INCLINATION": 41.4648,
    "RA_OF_ASC_NODE": 311.4036,
    "ARG_OF_PERICENTER": 209.9269,
    "MEAN_ANOMALY": 150.1263,
    "EPHEMERIS_TYPE": 0,
    "CLASSIFICATION_TYPE": "U",
    "NORAD_CAT_ID": 53239,
    "ELEMENT_SET_NO": 999,
    "REV_AT_EPOCH": 23717,
    "BSTAR": 0.00023637,
    "MEAN_MOTION_DOT": 0.00018962,
    "MEAN_MOTION_DDOT": 0
  },
  {
    "OBJECT_NAME": "CSS (MENGTIAN)",
    "OBJECT_ID": "2022-143A",
    "EPOCH": "2025-06-28T14:15:54.432000",
    "MEAN_MOTION": 15.59436651,
    "ECCENTRICITY": 0.0005369,
    "INCLINATION": 41.4648,
    "RA_OF_ASC_NODE": 311.4036,
    "ARG_OF_PERICENTER": 209.9269,
    "MEAN_ANOMALY": 150.1263,
    "EPHEMERIS_TYPE": 0,
    "CLASSIFICATION_TYPE": "U",
    "NORAD_CAT_ID": 54216,
    "ELEMENT_SET_NO": 999,
    "REV_AT_EPOCH": 15086,
    "BSTAR": 0.00023637,
    "MEAN_MOTION_DOT": 0.00018962,
    "MEAN_MOTION_DDOT": 0
  },
  {
    "OBJECT_NAME": "TIANZHOU-8",
    "OBJECT_ID": "2024-211A",
    "EPOCH": "2025-06-28T14:15:54.432000",
    "MEAN_MOTION": 15.59436651,
    "ECCENTRICITY": 0.0005369,
    "INCLINATION": 41.4648,
    "RA_OF_ASC_NODE": 311.4036,
    "ARG_OF_PERICENTER": 209.9269,
    "MEAN_ANOMALY": 150.1263,
    "EPHEMERIS_TYPE": 0,
    "CLASSIFICATION_TYPE": "U",
    "NORAD_CAT_ID": 61983,
    "ELEMENT_SET_NO": 999,
    "REV_AT_EPOCH": 23717,
    "BSTAR": 0.00023637,
    "MEAN_MOTION_DOT": 0.00018962,
    "MEAN_MOTION_DDOT": 0
  },
  {
    "OBJECT_NAME": "PROGRESS-MS 29",
    "OBJECT_ID": "2024-215A",
    "EPOCH": "2025-06-28T15:16:24.946176",
    "MEAN_MOTION": 15.50311632,
    "ECCENTRICITY": 0.0002273,
    "INCLINATION": 51.6357,
    "RA_OF_ASC_NODE": 250.3344,
    "ARG_OF_PERICENTER": 307.238,
    "MEAN_ANOMALY": 205.8554,
    "EPHEMERIS_TYPE": 0,
    "CLASSIFICATION_TYPE": "U",
    "NORAD_CAT_ID": 62030,
    "ELEMENT_SET_NO": 999,
    "REV_AT_EPOCH": 3454,
    "BSTAR": 0.0010165,
    "MEAN_MOTION_DOT": 0.00058636,
    "MEAN_MOTION_DDOT": 0
  },
  {
    "OBJECT_NAME": "PROGRESS-MS 30",
    "OBJECT_ID": "2025-041B",
    "EPOCH": "2025-06-28T15:16:24.946176",
    "MEAN_MOTION": 15.50311632,
    "ECCENTRICITY": 0.0002273,
    "INCLINATION": 51.6357,
    "RA_OF_ASC_NODE": 250.3344,
    "ARG_OF_PERICENTER": 307.238,
    "MEAN_ANOMALY": 205.8554,
    "EPHEMERIS_TYPE": 0,
    "CLASSIFICATION_TYPE": "U",
    "NORAD_CAT_ID": 63129,
    "ELEMENT_SET_NO": 999,
    "REV_AT_EPOCH": 1899,
    "BSTAR": 0.0010165,
    "MEAN_MOTION_DOT": 0.00058636,
    "MEAN_MOTION_DDOT": 0
  },
  {
    "OBJECT_NAME": "CREW DRAGON 10",
    "OBJECT_ID": "2025-049A",
    "EPOCH": "2025-06-28T15:16:24.946176",
    "MEAN_MOTION": 15.50311632,
    "ECCENTRICITY": 0.0002273,
    "INCLINATION": 51.6357,
    "RA_OF_ASC_NODE": 250.3344,
    "ARG_OF_PERICENTER": 307.238,
    "MEAN_ANOMALY": 205.8554,
    "EPHEMERIS_TYPE": 0,
    "CLASSIFICATION_TYPE": "U",
    "NORAD_CAT_ID": 63204,
    "ELEMENT_SET_NO": 999,
    "REV_AT_EPOCH": 1622,
    "BSTAR": 0.0010165,
    "MEAN_MOTION_DOT": 0.00058636,
    "MEAN_MOTION_DDOT": 0
  },
  {
    "OBJECT_NAME": "SOYUZ-MS 27",
    "OBJECT_ID": "2025-072A",
    "EPOCH": "2025-06-28T15:16:24.946176",
    "MEAN_MOTION": 15.50311632,
    "ECCENTRICITY": 0.0002273,
    "INCLINATION": 51.6357,
    "RA_OF_ASC_NODE": 250.3344,
    "ARG_OF_PERICENTER": 307.238,
    "MEAN_ANOMALY": 205.8554,
    "EPHEMERIS_TYPE": 0,
    "CLASSIFICATION_TYPE": "U",
    "NORAD_CAT_ID": 63520,
    "ELEMENT_SET_NO": 999,
    "REV_AT_EPOCH": 1228,
    "BSTAR": 0.0010165,
    "MEAN_MOTION_DOT": 0.00058636,
    "MEAN_MOTION_DDOT": 0
  },
  {
    "OBJECT_NAME": "SHENZHOU-20 (SZ-20)",
    "OBJECT_ID": "2025-082A",
    "EPOCH": "2025-06-28T14:15:54.432000",
    "MEAN_MOTION": 15.59436651,
    "ECCENTRICITY": 0.0005369,
    "INCLINATION": 41.4648,
    "RA_OF_ASC_NODE": 311.4036,
    "ARG_OF_PERICENTER": 209.9269,
    "MEAN_ANOMALY": 150.1263,
    "EPHEMERIS_TYPE": 0,
    "CLASSIFICATION_TYPE": "U",
    "NORAD_CAT_ID": 63632,
    "ELEMENT_SET_NO": 999,
    "REV_AT_EPOCH": 23717,
    "BSTAR": 0.00023637,
    "MEAN_MOTION_DOT": 0.00018962,
    "MEAN_MOTION_DDOT": 0
  },
  {
    "OBJECT_NAME": "AXIOM-4 (AX-4)",
    "OBJECT_ID": "2025-136A",
    "EPOCH": "2025-06-28T15:16:24.946176",
    "MEAN_MOTION": 15.50311632,
    "ECCENTRICITY": 0.0002273,
    "INCLINATION": 51.6357,
    "RA_OF_ASC_NODE": 250.3344,
    "ARG_OF_PERICENTER": 307.238,
    "MEAN_ANOMALY": 205.8554,
    "EPHEMERIS_TYPE": 0,
    "CLASSIFICATION_TYPE": "U",
    "NORAD_CAT_ID": 64593,
    "ELEMENT_SET_NO": 999,
    "REV_AT_EPOCH": 51676,
    "BSTAR": 0.0010165,
    "MEAN_MOTION_DOT": 0.00058636,
    "MEAN_MOTION_DDOT": 0
  }
]