ISS (NAUKA)             
1 49044U 21066A   25179.63639984  .00058636  00000+0  10165-2 0  9990
2 49044  51.6357 250.3344 0002273 307.2380 205.8554 15.50311632222392
FREGAT DEB              
1 49271U 11037PF  25179.42419988  .00019014  00000+0  37503-1 0  9997
2 49271  51.6400 334.0472 0923372 215.2362 138.3949 12.31027187181291
CSS (WENTIAN)           
1 53239U 22085A   25179.59438000  .00018962  00000+0  23637-3 0  9991
2 53239  41.4648 311.4036 0005369 209.9269 150.1263 15.59436651237172
CSS (MENGTIAN)          
1 54216U 22143A   25179.59438000  .00018962  00000+0  23637-3 0  9992
2 54216  41.4648 311.4036 0005369 209.9269 150.1263 15.59436651150868
TIANZHOU-8              
1 61983U 24211A   25179.59438000  .00018962  00000+0  23637-3 0  9999
2 61983  41.4648 311.4036 0005369 209.9269 150.1263 15.59436651237177
PROGRESS-MS 29          
1 62030U 24215A   25179.63639984  .00058636  00000+0  10165-2 0  9999
2 62030  51.6357 250.3344 0002273 307.2380 205.8554 15.50311632 34540
PROGRESS-MS 30          
1 63129U 25041B   25179.63639984  .00058636  00000+0  10165-2 0  9997
2 63129  51.6357 250.3344 0002273 307.2380 205.8554 15.50311632 18991
CREW DRAGON 10          
1 63204U 25049A   25179.63639984  .00058636  00000+0  10165-2 0  9999
2 63204  51.6357 250.3344 0002273 307.2380 205.8554 15.50311632 16229
SOYUZ-MS 27             
1 63520U 25072A   25179.63639984  .00058636  00000+0  10165-2 0  9996
2 63520  51.6357 250.3344 0002273 307.2380 205.8554 15.50311632 12282
SHENZHOU-20 (SZ-20)     
1 63632U 25082A   25179.59438000  .00018962  00000+0  23637-3 0  9999
2 63632  41.4648 311.4036 0005369 209.9269 150.1263 15.59436651237170
AXIOM-4 (AX-4)          
1 64593U 25136A   25179.63639984  .00058636  00000+0  10165-2 0  9998
2 64593  51.6357 250.3344 0002273 307.2380 205.8554 15.50311632516765
